NORAD_CAT_ID,OBJECT_NAME,OBJECT_TYPE,EPOCH,MEAN_MOTION,ECCENTRICITY,INCLINATION,RA_OF_ASC_NODE,ARG_OF_PERICENTER,MEAN_ANOMALY,BSTAR,MEAN_MOTION_DOT,MEAN_MOTION_DDOT,TLE_LINE0,TLE_LINE1,TLE_LINE2,SEMIMAJOR_AXIS,PERIOD,APOGEE,PERIGEE,DECAYED
53147.0,STARLINK-4094,PAYLOAD,2024-07-26 10:30:31,15.08849923,0.000124,53.2164,308.3557,94.9793,265.134,0.00032323,4.861e-05,0.0,0 STARLINK-4094,1 53147U 22083R   24208.43786280  .00004861  00000-0  32323-3 0  9994,2 53147  53.2164 308.3557 0001240  94.9793 265.1340 15.08849923112613,6917.85,95.437,540.573,538.857,0.0
53147.0,STARLINK-4094,PAYLOAD,2024-07-26 16:52:03,15.08859869,0.0001301,53.2161,307.1658,97.342,262.772,0.00043569,6.657e-05,0.0,0 STARLINK-4094,1 53147U 22083R   24208.70281801  .00006657  00000-0  43569-3 0  9992,2 53147  53.2161 307.1658 0001301  97.3420 262.7720 15.08859869112650,6917.82,95.436,540.585,538.785,0.0
53147.0,STARLINK-4094,PAYLOAD,2024-07-27 10:21:18,15.08831953,0.0001688,53.2149,303.8884,106.9805,253.1373,-0.00016879,-2.973e-05,0.0,0 STARLINK-4094,1 53147U 22083R   24209.43146918 -.00002973  00000-0 -16879-3 0  9995,2 53147  53.2149 303.8884 0001688 106.9805 253.1373 15.08831953112744,6917.905,95.438,540.938,538.602,0.0
53147.0,STARLINK-4094,PAYLOAD,2024-07-27 15:07:28,15.08830289,0.0001549,53.2156,302.9976,94.3849,265.732,-0.00014952,-2.666e-05,0.0,0 STARLINK-4094,1 53147U 22083R   24209.63019164 -.00002666  00000-0 -14952-3 0  9998,2 53147  53.2156 302.9976 0001549  94.3849 265.7320 15.08830289112795,6917.91,95.438,540.847,538.703,0.0
53147.0,STARLINK-4094,PAYLOAD,2024-07-28 11:47:29,15.08847372,0.0001417,53.2177,299.139,85.7237,274.3917,0.00025218,3.729e-05,0.0,0 STARLINK-4094,1 53147U 22083R   24210.49130923  .00003729  00000-0  25218-3 0  9997,2 53147  53.2177 299.1390 0001417  85.7237 274.3917 15.08847372112906,6917.858,95.437,540.703,538.743,0.0
53147.0,STARLINK-4094,PAYLOAD,2024-07-28 14:58:15,15.08854997,0.0001581,53.2158,298.5445,96.2436,263.8737,0.00080656,0.00012577,0.0,0 STARLINK-4094,1 53147U 22083R   24210.62378949  .00012577  00000-0  80656-3 0  9992,2 53147  53.2158 298.5445 0001581  96.2436 263.8737 15.08854997112947,6917.835,95.437,540.793,538.606,0.0
53147.0,STARLINK-4094,PAYLOAD,2024-07-29 10:02:53,15.08844036,0.0001755,53.2163,294.9705,77.0627,283.0561,0.00016968,2.414e-05,0.0,0 STARLINK-4094,1 53147U 22083R   24211.41867147  .00002414  00000-0  16968-3 0  9997,2 53147  53.2163 294.9705 0001755  77.0627 283.0561 15.08844036113048,6917.868,95.437,540.947,538.519,0.0
53147.0,STARLINK-4094,PAYLOAD,2024-07-29 13:13:39,15.0884694,0.0001729,53.2163,294.3775,78.9138,281.2048,0.00039381,5.986e-05,0.0,0 STARLINK-4094,1 53147U 22083R   24211.55115045  .00005986  00000-0  39381-3 0  9996,2 53147  53.2163 294.3775 0001729  78.9138 281.2048 15.08846940113087,6917.859,95.437,540.92,538.528,0.0
53147.0,STARLINK-4094,PAYLOAD,2024-07-29 14:49:02,15.08850978,0.0001686,53.2163,294.0806,78.5901,281.5281,0.00062463,9.67e-05,0.0,0 STARLINK-4094,1 53147U 22083R   24211.61739001  .00009670  00000-0  62463-3 0  9998,2 53147  53.2163 294.0806 0001686  78.5901 281.5281 15.08850978113094,6917.847,95.437,540.878,538.545,0.0
53147.0,STARLINK-4094,PAYLOAD,2024-07-30 11:29:03,15.08844357,0.0001638,53.2139,290.2145,86.4502,273.6678,0.00056575,8.728e-05,0.0,0 STARLINK-4094,1 53147U 22083R   24212.47851335  .00008728  00000-0  56575-3 0  9998,2 53147  53.2139 290.2145 0001638  86.4502 273.6678 15.08844357113202,6917.867,95.437,540.865,538.599,0.0
53147.0,STARLINK-4094,PAYLOAD,2024-07-30 14:39:49,15.08849648,0.000162,53.214,289.6196,87.449,272.6688,0.00066781,0.00010359,0.0,0 STARLINK-4094,1 53147U 22083R   24212.61099291  .00010359  00000-0  66781-3 0  9992,2 53147  53.2140 289.6196 0001620  87.4490 272.6688 15.08849648113242,6917.851,95.437,540.837,538.595,0.0
53147.0,STARLINK-4094,PAYLOAD,2024-07-31 14:30:36,15.08858747,0.0001746,53.2169,285.1567,96.6392,263.4799,0.0004765,7.307e-05,0.0,0 STARLINK-4094,1 53147U 22083R   24213.60458478  .00007307  00000-0  47650-3 0  9991,2 53147  53.2169 285.1567 0001746  96.6392 263.4799 15.08858747113395,6917.823,95.436,540.896,538.48,0.0
53147.0,STARLINK-4094,PAYLOAD,2024-08-01 11:10:37,15.08851147,0.0001458,53.2152,281.2933,93.0305,267.0854,0.00038388,5.829e-05,0.0,0 STARLINK-4094,1 53147U 22083R   24214.46570627  .00005829  00000-0  38388-3 0  9992,2 53147  53.2152 281.2933 0001458  93.0305 267.0854 15.08851147113508,6917.846,95.437,540.72,538.703,0.0
53147.0,STARLINK-4094,PAYLOAD,2024-08-02 11:01:24,15.08838847,0.0001475,53.2172,276.84,87.1707,272.9454,6.6451e-05,7.7e-06,0.0,0 STARLINK-4094,1 53147U 22083R   24215.45931238  .00000770  00000-0  66451-4 0  9994,2 53147  53.2172 276.8400 0001475  87.1707 272.9454 15.08838847113657,6917.884,95.438,540.769,538.729,0.0
53147.0,STARLINK-4094,PAYLOAD,2024-08-02 20:33:44,15.08827007,0.0002313,53.2168,275.047,81.2885,278.8369,-6.8079e-05,-1.371e-05,0.0,0 STARLINK-4094,1 53147U 22083R   24215.85675984 -.00001371  00000-0 -68079-4 0  9999,2 53147  53.2168 275.0470 0002313  81.2885 278.8369 15.08827007113717,6917.92,95.438,541.385,538.185,0.0
53147.0,STARLINK-4094,PAYLOAD,2024-08-03 10:52:11,15.08838744,0.0001415,53.2163,272.3744,87.5053,272.6101,0.00013998,1.94e-05,0.0,0 STARLINK-4094,1 53147U 22083R   24216.45291611  .00001940  00000-0  13998-3 0  9996,2 53147  53.2163 272.3744 0001415  87.5053 272.6101 15.08838744113800,6917.884,95.438,540.728,538.77,0.0
53147.0,STARLINK-4094,PAYLOAD,2024-08-03 20:24:30,15.08838924,0.0001395,53.216,270.5903,84.7949,275.3202,0.00016946,2.41e-05,0.0,0 STARLINK-4094,1 53147U 22083R   24216.85035761  .00002410  00000-0  16946-3 0  9991,2 53147  53.2160 270.5903 0001395  84.7949 275.3202 15.08838924113884,6917.884,95.438,540.714,538.784,0.0
53147.0,STARLINK-4094,PAYLOAD,2024-08-04 12:18:21,15.08857794,0.0001368,53.2155,267.6177,85.5827,274.5321,0.00059158,9.144e-05,0.0,0 STARLINK-4094,1 53147U 22083R   24217.51275317  .00009144  00000-0  59158-3 0  9991,2 53147  53.2155 267.6177 0001368  85.5827 274.5321 15.08857794113960,6917.826,95.436,540.637,538.745,0.0
53147.0,STARLINK-4094,PAYLOAD,2024-08-04 13:53:44,15.08861772,0.0001379,53.2154,267.3202,85.3641,274.7508,0.00079013,0.00012317,0.0,0 STARLINK-4094,1 53147U 22083R   24217.57899265  .00012317  00000-0  79013-3 0  9999,2 53147  53.2154 267.3202 0001379  85.3641 274.7508 15.08861772113992,6917.814,95.436,540.633,538.725,0.0
53147.0,STARLINK-4094,PAYLOAD,2024-08-05 08:58:22,15.08851612,0.0001526,53.2147,263.7514,99.3568,260.7596,0.00018466,2.653e-05,0.0,0 STARLINK-4094,1 53147U 22083R   24218.37386906  .00002653  00000-0  18466-3 0  9998,2 53147  53.2147 263.7514 0001526  99.3568 260.7596 15.08851612114093,6917.845,95.437,540.766,538.654,0.0
53147.0,STARLINK-4094,PAYLOAD,2024-08-05 20:06:04,15.08834133,0.0001395,53.2147,261.6691,93.471,266.6442,-0.00016199,-2.865e-05,0.0,0 STARLINK-4094,1 53147U 22083R   24218.83755463 -.00002865  00000-0 -16199-3 0  9995,2 53147  53.2147 261.6691 0001395  93.4710 266.6442 15.08834133114166,6917.898,95.438,540.728,538.798,0.0
53147.0,STARLINK-4094,PAYLOAD,2024-08-06 11:59:58,15.08810471,0.0001498,53.2156,258.6957,95.9774,264.1389,-0.00036517,-6.09e-05,0.0,0 STARLINK-4094,1 53147U 22083R   24219.49997935 -.00006090  00000-0 -36517-3 0  9990,2 53147  53.2156 258.6957 0001498  95.9774 264.1389 15.08810471114261,6917.971,95.439,540.872,538.799,0.0
53147.0,STARLINK-4094,PAYLOAD,2024-08-07 02:18:26,15.08830173,0.0001337,53.2157,256.0194,83.1307,276.9837,7.445e-05,8.97e-06,0.0,0 STARLINK-4094,1 53147U 22083R   24220.09613615  .00000897  00000-0  74450-4 0  9994,2 53147  53.2157 256.0194 0001337  83.1307 276.9837 15.08830173114350,6917.91,95.438,540.7,538.851,0.0
53147.0,STARLINK-4094,PAYLOAD,2024-08-07 11:50:44,15.08844457,0.0001851,53.2155,254.2359,95.8349,264.2854,0.00028713,4.285e-05,0.0,0 STARLINK-4094,1 53147U 22083R   24220.49357186  .00004285  00000-0  28713-3 0  9991,2 53147  53.2155 254.2359 0001851  95.8349 264.2854 15.08844457114414,6917.867,95.437,541.012,538.451,0.0
53147.0,STARLINK-4094,PAYLOAD,2024-08-08 11:41:31,15.08859896,0.000161,53.2154,249.7735,104.9608,255.1563,0.00066096,0.00010253,0.0,0 STARLINK-4094,1 53147U 22083R   24221.48716534  .00010253  00000-0  66096-3 0  9995,2 53147  53.2154 249.7735 0001610 104.9608 255.1563 15.08859896114580,6917.82,95.436,540.798,538.571,0.0
53147.0,STARLINK-4094,PAYLOAD,2024-08-09 05:10:45,15.08854104,0.0001935,53.215,246.5,114.1111,246.0084,-7.4456e-06,-4.07e-06,0.0,0 STARLINK-4094,1 53147U 22083R   24222.21579949 -.00000407  00000-0 -74456-5 0  9997,2 53147  53.2150 246.5000 0001935 114.1111 246.0084 15.08854104114672,6917.837,95.437,541.041,538.364,0.0
53147.0,STARLINK-4094,PAYLOAD,2024-08-09 06:46:08,15.08854327,0.0001714,53.2152,246.2025,117.6228,242.4939,2.8734e-06,-2.42e-06,0.0,0 STARLINK-4094,1 53147U 22083R   24222.28203964 -.00000242  00000-0  28734-5 0  9999,2 53147  53.2152 246.2025 0001714 117.6228 242.4939 15.08854327114700,6917.837,95.437,540.887,538.516,0.0
53147.0,STARLINK-4094,PAYLOAD,2024-08-10 11:23:03,15.08863829,0.0001393,53.2155,240.8504,95.992,264.1231,0.00028053,4.182e-05,0.0,0 STARLINK-4094,1 53147U 22083R   24223.47434612  .00004182  00000-0  28053-3 0  9995,2 53147  53.2155 240.8504 0001393  95.9920 264.1231 15.08863829114865,6917.808,95.436,540.636,538.709,0.0
53147.0,STARLINK-4094,PAYLOAD,2024-08-11 01:41:32,15.08834197,9.02e-05,53.2155,238.1739,62.4052,297.7032,-0.00014966,-2.668e-05,0.0,0 STARLINK-4094,1 53147U 22083R   24224.07051672 -.00002668  00000-0 -14966-3 0  9990,2 53147  53.2155 238.1739 0000902  62.4052 297.7032 15.08834197114952,6917.898,95.438,540.387,539.139,0.0
53147.0,STARLINK-4094,PAYLOAD,2024-08-11 17:35:24,15.08832737,0.0001566,53.2159,235.2041,91.0715,269.0457,-0.00010377,-1.939e-05,0.0,0 STARLINK-4094,1 53147U 22083R   24224.73292072 -.00001939  00000-0 -10377-3 0  9996,2 53147  53.2159 235.2041 0001566  91.0715 269.0457 15.08832737115076,6917.903,95.438,540.851,538.684,0.0
